QIANFAN-81              
1 63167U 25046J   25261.90816256  .00000154  00000+0  22015-3 0  9995
2 63167  88.9840 328.6383 0014482  15.2852 344.8734 13.50977075 36036
QIANFAN-82              
1 63168U 25046K   25261.94105440  .00000154  00000+0  22025-3 0  9997
2 63168  88.9840 328.6784 0012987  24.3786 335.7977 13.50973836 36025
QIANFAN-83              
1 63169U 25046L   25261.91742117  .00000168  00000+0  20208-3 0  9999
2 63169  88.9839 328.6236 0013848  13.5961 346.5566 13.61951330 36052
QIANFAN-84              
1 63170U 25046M   25261.89562250  .00000135  00000+0  18985-3 0  9999
2 63170  88.9840 328.8161 0015764  18.9274 341.2460 13.50979268 35940
QIANFAN-85              
1 63171U 25046N   25261.89176148  .00000158  00000+0  22613-3 0  9995
2 63171  88.9839 328.6886 0013275  23.1755 336.9992 13.50975026 36016
QIANFAN-86              
1 63172U 25046P   25261.89997774  .00000155  00000+0  22161-3 0  9997
2 63172  88.9841 328.5479 0011371  29.2433 330.9353 13.50975560 36098
QIANFAN-87              
1 63173U 25046Q   25261.94524226  .00000136  00000+0  19125-3 0  9997
2 63173  88.9837 328.6581 0011846  23.4412 336.7277 13.50971492 36032
QIANFAN-88              
1 63174U 25046R   25261.96165235  .00000163  00000+0  23330-3 0  9994
2 63174  88.9839 328.6088 0012548  30.8553 329.3333 13.50979309 36064
